NORAD_CAT_ID,OBJECT_NAME,OBJECT_TYPE,EPOCH,MEAN_MOTION,ECCENTRICITY,INCLINATION,RA_OF_ASC_NODE,ARG_OF_PERICENTER,MEAN_ANOMALY,BSTAR,MEAN_MOTION_DOT,MEAN_MOTION_DDOT,TLE_LINE0,TLE_LINE1,TLE_LINE2,SEMIMAJOR_AXIS,PERIOD,APOGEE,PERIGEE,DECAYED
51977.0,STARLINK-3660,PAYLOAD,2023-01-28 03:16:13,15.08828456,0.0001012,53.2152,81.3173,90.6815,269.4293,0.00037423,5.671e-05,0.0,0 STARLINK-3660,1 51977U 22025X   23028.13626549  .00005671  00000-0  37423-3 0  9992,2 51977  53.2152  81.3173 0001012  90.6815 269.4293 15.08828456 50844,6917.916,95.438,540.481,539.081,0.0
51977.0,STARLINK-3660,PAYLOAD,2023-01-28 12:48:31,15.0884302,0.0001353,53.2161,79.532,88.4824,271.6323,2.8759e-05,1.7e-06,0.0,0 STARLINK-3660,1 51977U 22025X   23028.53369978  .00000170  00000-0  28759-4 0  9998,2 51977  53.2161  79.5320 0001353  88.4824 271.6323 15.08843020 50900,6917.871,95.437,540.672,538.8,0.0
51977.0,STARLINK-3660,PAYLOAD,2023-01-28 20:45:27,15.08845734,0.0001415,53.216,78.0451,73.3116,286.8031,-1.9816e-05,-6.03e-06,0.0,0 STARLINK-3660,1 51977U 22025X   23028.86489775 -.00000603  00000-0 -19816-4 0  9999,2 51977  53.2160  78.0451 0001415  73.3116 286.8031 15.08845734 49865,6917.863,95.437,540.707,538.749,0.0
51977.0,STARLINK-3660,PAYLOAD,2023-01-29 14:14:41,15.08846321,0.0001382,53.2156,74.7724,89.0716,271.0434,6.8371e-05,8.01e-06,0.0,0 STARLINK-3660,1 51977U 22025X   23029.59353524  .00000801  00000-0  68371-4 0  9990,2 51977  53.2156  74.7724 0001382  89.0716 271.0434 15.08846321 51060,6917.861,95.437,540.682,538.77,0.0
51977.0,STARLINK-3660,PAYLOAD,2023-01-30 06:08:33,15.08830129,0.0001232,53.2168,71.7976,91.1201,268.9932,0.00011829,1.595e-05,0.0,0 STARLINK-3660,1 51977U 22025X   23030.25594401  .00001595  00000-0  11829-3 0  9992,2 51977  53.2168  71.7976 0001232  91.1201 268.9932 15.08830129 51164,6917.911,95.438,540.628,538.923,0.0
51977.0,STARLINK-3660,PAYLOAD,2023-01-30 09:19:19,15.08840391,0.0001392,53.2156,71.2036,96.3262,263.7888,5.6115e-05,6.05e-06,0.0,0 STARLINK-3660,1 51977U 22025X   23030.38841923  .00000605  00000-0  56115-4 0  9999,2 51977  53.2156  71.2036 0001392  96.3262 263.7888 15.08840391 50090,6917.879,95.438,540.707,538.781,0.0
51977.0,STARLINK-3660,PAYLOAD,2023-01-31 12:20:52,15.08841123,0.0001333,53.2152,66.1495,84.3553,275.7591,7.0381e-05,8.32e-06,0.0,0 STARLINK-3660,1 51977U 22025X   23031.51449983  .00000832  00000-0  70381-4 0  9998,2 51977  53.2152  66.1495 0001333  84.3553 275.7591 15.08841123 51351,6917.877,95.437,540.664,538.82,0.0
51977.0,STARLINK-3660,PAYLOAD,2023-01-31 18:42:25,15.08838215,0.0001395,53.2157,64.9595,91.6265,268.4887,-1.0634e-05,-4.57e-06,0.0,0 STARLINK-3660,1 51977U 22025X   23031.77946355 -.00000457  00000-0 -10634-4 0  9991,2 51977  53.2157  64.9595 0001395  91.6265 268.4887 15.08838215 50301,6917.886,95.438,540.716,538.786,0.0
51977.0,STARLINK-3660,PAYLOAD,2023-02-01 07:25:30,15.08841319,0.0001421,53.2156,62.5802,99.4884,260.6269,5.4554e-05,5.8e-06,0.0,0 STARLINK-3660,1 51977U 22025X   23032.30938009  .00000580  00000-0  54554-4 0  9992,2 51977  53.2156  62.5802 0001421  99.4884 260.6269 15.08841319 50383,6917.876,95.437,540.724,538.758,0.0
51977.0,STARLINK-3660,PAYLOAD,2023-02-01 18:33:12,15.08841148,0.0001284,53.2152,60.4989,93.2703,266.8436,2.0202e-05,3.4e-07,0.0,0 STARLINK-3660,1 51977U 22025X   23032.77306073  .00000034  00000-0  20202-4 0  9990,2 51977  53.2152  60.4989 0001284  93.2703 266.8436 15.08841148 51544,6917.877,95.437,540.63,538.854,0.0
51977.0,STARLINK-3660,PAYLOAD,2023-02-02 02:30:09,15.08828533,0.0001287,53.216,59.0118,97.6738,262.44,-5.7492e-05,-1.202e-05,0.0,0 STARLINK-3660,1 51977U 22025X   23033.10427263 -.00001202  00000-0 -57492-4 0  9994,2 51977  53.2160  59.0118 0001287  97.6738 262.4400 15.08828533 51591,6917.915,95.438,540.671,538.89,0.0
51977.0,STARLINK-3660,PAYLOAD,2023-02-02 08:51:41,15.08833765,0.0001271,53.2162,57.8223,97.5993,262.5144,-1.8388e-05,-5.8e-06,0.0,0 STARLINK-3660,1 51977U 22025X   23033.36922947 -.00000580  00000-0 -18388-4 0  9990,2 51977  53.2162  57.8223 0001271  97.5993 262.5144 15.08833765 50544,6917.899,95.438,540.644,538.885,0.0
51977.0,STARLINK-3660,PAYLOAD,2023-02-03 05:31:41,15.08840358,0.0001441,53.2178,53.9574,103.0169,257.0984,4.8343e-05,4.82e-06,0.0,0 STARLINK-3660,1 51977U 22025X   23034.23034633  .00000482  00000-0  48343-4 0  9996,2 51977  53.2178  53.9574 0001441 103.0169 257.0984 15.08840358 51766,6917.879,95.438,540.741,538.747,0.0
51977.0,STARLINK-3660,PAYLOAD,2023-02-03 10:17:51,15.08843735,0.0001486,53.2165,53.0643,103.035,257.0808,0.00010204,1.337e-05,0.0,0 STARLINK-3660,1 51977U 22025X   23034.42906294  .00001337  00000-0  10204-3 0  9992,2 51977  53.2165  53.0643 0001486 103.0350 257.0808 15.08843735 50701,6917.869,95.437,540.762,538.706,0.0
51977.0,STARLINK-3660,PAYLOAD,2023-02-04 08:33:13,15.08862345,0.0001396,53.2161,48.9021,81.9625,278.1525,0.00067486,0.00010475,0.0,0 STARLINK-3660,1 51977U 22025X   23035.35641150  .00010475  00000-0  67486-3 0  9999,2 51977  53.2161  48.9021 0001396  81.9625 278.1525 15.08862345 51933,6917.812,95.436,540.643,538.711,0.0
51977.0,STARLINK-3660,PAYLOAD,2023-02-04 18:05:33,15.08851655,0.0001499,53.216,47.1178,79.5573,280.5588,0.00019211,2.772e-05,0.0,0 STARLINK-3660,1 51977U 22025X   23035.75385458  .00002772  00000-0  19211-3 0  9993,2 51977  53.2160  47.1178 0001499  79.5573 280.5588 15.08851655 51999,6917.845,95.437,540.747,538.673,0.0
51977.0,STARLINK-3660,PAYLOAD,2023-02-05 06:48:38,15.08830852,0.000112,53.2151,44.7386,88.6547,271.4574,-0.0003352,-5.617e-05,0.0,0 STARLINK-3660,1 51977U 22025X   23036.28377905 -.00005617  00000-0 -33520-3 0  9992,2 51977  53.2151  44.7386 0001120  88.6547 271.4574 15.08830852 52076,6917.908,95.438,540.548,538.999,0.0
51977.0,STARLINK-3660,PAYLOAD,2023-02-05 17:56:20,15.08829538,0.0001099,53.2148,42.6569,90.2518,269.86,0.00013271,1.824e-05,0.0,0 STARLINK-3660,1 51977U 22025X   23036.74746374  .00001824  00000-0  13271-3 0  9998,2 51977  53.2148  42.6569 0001099  90.2518 269.8600 15.08829538 51051,6917.912,95.438,540.538,539.017,0.0
51977.0,STARLINK-3660,PAYLOAD,2023-02-06 09:50:12,15.08847512,0.0001099,53.2151,39.6818,97.93,262.1817,0.0011874,0.00018664,0.0,0 STARLINK-3660,1 51977U 22025X   23037.40986852  .00018664  00000-0  11874-2 0  9995,2 51977  53.2151  39.6818 0001099  97.9300 262.1817 15.08847512 52241,6917.857,95.437,540.483,538.962,0.0
51977.0,STARLINK-3660,PAYLOAD,2023-02-06 11:25:35,15.08851793,0.0001124,53.215,39.3847,97.4392,262.6728,0.0012477,0.00019631,0.0,0 STARLINK-3660,1 51977U 22025X   23037.47610770  .00019631  00000-0  12477-2 0  9990,2 51977  53.2150  39.3847 0001124  97.4392 262.6728 15.08851793 51166,6917.844,95.437,540.487,538.932,0.0
51977.0,STARLINK-3660,PAYLOAD,2023-02-07 06:30:12,15.08868094,0.0001084,53.2156,35.8167,98.1006,262.0109,0.0012286,0.00019334,0.0,0 STARLINK-3660,1 51977U 22025X   23038.27098337  .00019334  00000-0  12286-2 0  9996,2 51977  53.2156  35.8167 0001084  98.1006 262.0109 15.08868094 52376,6917.795,95.436,540.409,538.91,0.0
51977.0,STARLINK-3660,PAYLOAD,2023-02-07 11:16:21,15.08879652,0.0001151,53.2156,34.9242,100.2738,259.8384,0.0014974,0.00023649,0.0,0 STARLINK-3660,1 51977U 22025X   23038.46969874  .00023649  00000-0  14974-2 0  9990,2 51977  53.2156  34.9242 0001151 100.2738 259.8384 15.08879652 51316,6917.759,95.435,540.42,538.828,0.0
51977.0,STARLINK-3660,PAYLOAD,2023-02-08 06:20:59,15.08854972,0.0001339,53.2163,31.3568,89.7388,270.3757,0.00080605,0.00012569,0.0,0 STARLINK-3660,1 51977U 22025X   23039.26458235  .00012569  00000-0  80605-3 0  9997,2 51977  53.2163  31.3568 0001339  89.7388 270.3757 15.08854972 52520,6917.835,95.437,540.626,538.773,0.0
51977.0,STARLINK-3660,PAYLOAD,2023-02-08 11:07:09,15.08867217,0.0001264,53.2164,30.4643,83.7876,276.326,0.0019165,0.00030368,0.0,0 STARLINK-3660,1 51977U 22025X   23039.46330095  .00030368  00000-0  19165-2 0  9991,2 51977  53.2164  30.4643 0001264  83.7876 276.3260 15.08867217 51461,6917.797,95.436,540.537,538.788,0.0
51977.0,STARLINK-3660,PAYLOAD,2023-02-09 06:11:47,15.08848157,0.0001381,53.216,26.8959,102.8366,257.2781,0.0019713,0.00031232,0.0,0 STARLINK-3660,1 51977U 22025X   23040.25818961  .00031232  00000-0  19713-2 0  9993,2 51977  53.2160  26.8959 0001381 102.8366 257.2781 15.08848157 52675,6917.855,95.437,540.676,538.765,0.0
51977.0,STARLINK-3660,PAYLOAD,2023-02-09 09:22:33,15.08861728,0.0001284,53.2165,26.3008,104.2302,255.8833,0.0024446,0.00038856,0.0,0 STARLINK-3660,1 51977U 22025X   23040.39066772  .00038856  00000-0  24446-2 0  9991,2 51977  53.2165  26.3008 0001284 104.2302 255.8833 15.08861728 51601,6917.814,95.436,540.567,538.791,0.0
51977.0,STARLINK-3660,PAYLOAD,2023-02-09 23:41:02,15.08833151,0.0001428,53.2167,23.625,123.9749,236.1379,0.0018041,0.00028536,0.0,0 STARLINK-3660,1 51977U 22025X   23040.98683415  .00028536  00000-0  18041-2 0  9993,2 51977  53.2167  23.6250 0001428 123.9749 236.1379 15.08833151 52781,6917.901,95.438,540.754,538.778,0.0
51977.0,STARLINK-3660,PAYLOAD,2023-02-10 06:02:34,15.08852959,0.0001483,53.217,22.4359,115.4243,244.6903,0.0016878,0.00026685,0.0,0 STARLINK-3660,1 51977U 22025X   23041.25179187  .00026685  00000-0  16878-2 0  9999,2 51977  53.2170  22.4359 0001483 115.4243 244.6903 15.08852959 51736,6917.841,95.437,540.732,538.68,0.0
51977.0,STARLINK-3660,PAYLOAD,2023-02-11 01:07:11,15.08864997,0.0001575,53.2166,18.8673,131.3285,228.7843,0.0011928,0.00018759,0.0,0 STARLINK-3660,1 51977U 22025X   23042.04666494  .00018759  00000-0  11928-2 0  9993,2 51977  53.2166  18.8673 0001575 131.3285 228.7843 15.08864997 52949,6917.804,95.436,540.759,538.579,0.0
51977.0,STARLINK-3660,PAYLOAD,2023-02-11 07:28:43,15.08887612,0.0001626,53.2169,17.6781,130.036,230.0775,0.0016224,0.00025661,0.0,0 STARLINK-3660,1 51977U 22025X   23042.31161727  .00025661  00000-0  16224-2 0  9996,2 51977  53.2169  17.6781 0001626 130.0360 230.0775 15.08887612 52989,6917.735,95.435,540.725,538.475,0.0
